METEOSAT-11 (MSG-4)     
1 40732U 15034A   26091.32578726  .00000055  00000+0  00000+0 0  9995
2 40732   3.0084  71.5120 0001761 284.9559 319.7610  1.00274921  6443
ELEKTRO-L 2             
1 41105U 15074A   26091.24978028 -.00000122  00000+0  00000+0 0  9990
2 41105   6.5023  71.4572 0002758 252.4022 301.1839  1.00272092 37732
INSAT-3DR               
1 41752U 16054A   26091.48126789 -.00000086  00000+0  00000+0 0  9991
2 41752   0.1213  87.2148 0012405 195.9951 153.8725  1.00272861 35049
HIMAWARI-9              
1 41836U 16064A   26091.49452794 -.00000284  00000+0  00000+0 0  9994
2 41836   0.0388 118.8480 0001121 264.3369 125.4703  1.00272104 34445
GOES 16                 
1 41866U 16071A   26091.44097243 -.00000100  00000+0  00000+0 0  9991
2 41866   0.1674  85.3506 0002009 239.9451 278.5505  1.00271983 34332
FENGYUN 4A              
1 41882U 16077A   26091.49106126 -.00000365  00000+0  00000+0 0  9994
2 41882   2.1291  81.0472 0007314 135.8123 273.3578  1.00264626 34166
CYGFM05                 
1 41884U 16078A   26091.26747934  .00024660  00000+0  37792-3 0  9995
2 41884  34.9584  48.6567 0006252 158.3035 201.7954 15.53318642516778
CYGFM04                 
1 41885U 16078B   26091.19895476  .00031491  00000+0  41619-3 0  9996
2 41885  34.9346  20.3134 0006363 203.3157 156.7280 15.57287736516977
CYGFM02                 
1 41886U 16078C   26091.13162150  .00040918  00000+0  49718-3 0  9999
2 41886  34.9429  17.1717 0007322 200.3498 159.6936 15.59459631517116
CYGFM01                 
1 41887U 16078D   26091.28709751  .00025270  00000+0  37928-3 0  9994
2 41887  34.9414  50.1656 0005781 151.3541 208.7501 15.53888063516720
CYGFM08                 
1 41888U 16078E   26091.17377164  .00029267  00000+0  40474-3 0  9992
2 41888  34.9450  32.3247 0007824 179.6478 180.4253 15.56072533516956
CYGFM07                 
1 41890U 16078G   26091.13724990  .00035435  00000+0  48822-3 0  9993
2 41890  34.9468  20.9671 0006800 200.5552 159.4899 15.56152515516975
CYGFM03                 
1 41891U 16078H   26091.49319444  .00031253  00000+0  43067-3 0  9997
2 41891  34.9424  20.5783 0005733 193.0483 167.0093 15.56175385517007
FENGYUN 3D              
1 43010U 17072A   26091.47032251  .00000482  00000+0  24976-3 0  9991
2 43010  99.0060  64.5332 0000506 290.5032  69.6089 14.19723280434106
NOAA 20 (JPSS-1)        
1 43013U 17073A   26091.45409212  .00000086  00000+0  61933-4 0  9993
2 43013  98.7719  31.6186 0001983 107.1249 253.0144 14.19541965433581
GOES 17                 
1 43226U 18022A   26091.44885442 -.00000191  00000+0  00000+0 0  9997
2 43226   0.7413  86.8648 0001316 247.1617 287.8673  1.00272001 29659
FENGYUN 2H              
1 43491U 18050A   26091.48222123 -.00000133  00000+0  00000+0 0  9993
2 43491   2.8337  79.9869 0001468 174.5180 187.9819  1.00270454 28678
