[{"OBJECT_NAME":"METEOSAT-11 (MSG-4)","OBJECT_ID":"2015-034A","EPOCH":"2026-04-01T07:49:08.019264","MEAN_MOTION":1.00274921,"ECCENTRICITY":0.0001761,"INCLINATION":3.0084,"RA_OF_ASC_NODE":71.512,"ARG_OF_PERICENTER":284.9559,"MEAN_ANOMALY":319.761,"EPHEMERIS_TYPE":0,"CLASSIFICATION_TYPE":"U","NORAD_CAT_ID":40732,"ELEMENT_SET_NO":999,"REV_AT_EPOCH":644,"BSTAR":0,"MEAN_MOTION_DOT":5.5e-7,"MEAN_MOTION_DDOT":0},{"OBJECT_NAME":"ELEKTRO-L 2","OBJECT_ID":"2015-074A","EPOCH":"2026-04-01T05:59:41.016192","MEAN_MOTION":1.00272092,"ECCENTRICITY":0.0002758,"INCLINATION":6.5023,"RA_OF_ASC_NODE":71.4572,"ARG_OF_PERICENTER":252.4022,"MEAN_ANOMALY":301.1839,"EPHEMERIS_TYPE":0,"CLASSIFICATION_TYPE":"U","NORAD_CAT_ID":41105,"ELEMENT_SET_NO":999,"REV_AT_EPOCH":3773,"BSTAR":0,"MEAN_MOTION_DOT":-1.22e-6,"MEAN_MOTION_DDOT":0},{"OBJECT_NAME":"INSAT-3DR","OBJECT_ID":"2016-054A","EPOCH":"2026-04-01T11:33:01.545696","MEAN_MOTION":1.00272861,"ECCENTRICITY":0.0012405,"INCLINATION":0.1213,"RA_OF_ASC_NODE":87.2148,"ARG_OF_PERICENTER":195.9951,"MEAN_ANOMALY":153.8725,"EPHEMERIS_TYPE":0,"CLASSIFICATION_TYPE":"U","NORAD_CAT_ID":41752,"ELEMENT_SET_NO":999,"REV_AT_EPOCH":3504,"BSTAR":0,"MEAN_MOTION_DOT":-8.6e-7,"MEAN_MOTION_DDOT":0},{"OBJECT_NAME":"HIMAWARI-9","OBJECT_ID":"2016-064A","EPOCH":"2026-04-01T11:52:07.214016","MEAN_MOTION":1.00272104,"ECCENTRICITY":0.0001121,"INCLINATION":0.0388,"RA_OF_ASC_NODE":118.848,"ARG_OF_PERICENTER":264.3369,"MEAN_ANOMALY":125.4703,"EPHEMERIS_TYPE":0,"CLASSIFICATION_TYPE":"U","NORAD_CAT_ID":41836,"ELEMENT_SET_NO":999,"REV_AT_EPOCH":3444,"BSTAR":0,"MEAN_MOTION_DOT":-2.84e-6,"MEAN_MOTION_DDOT":0},{"OBJECT_NAME":"GOES 16","OBJECT_ID":"2016-071A","EPOCH":"2026-04-01T10:35:00.017952","MEAN_MOTION":1.00271983,"ECCENTRICITY":0.0002009,"INCLINATION":0.1674,"RA_OF_ASC_NODE":85.3506,"ARG_OF_PERICENTER":239.9451,"MEAN_ANOMALY":278.5505,"EPHEMERIS_TYPE":0,"CLASSIFICATION_TYPE":"U","NORAD_CAT_ID":41866,"ELEMENT_SET_NO":999,"REV_AT_EPOCH":3433,"BSTAR":0,"MEAN_MOTION_DOT":-1.0e-6,"MEAN_MOTION_DDOT":0},{"OBJECT_NAME":"FENGYUN 4A","OBJECT_ID":"2016-077A","EPOCH":"2026-04-01T11:47:07.692864","MEAN_MOTION":1.00264626,"ECCENTRICITY":0.0007314,"INCLINATION":2.1291,"RA_OF_ASC_NODE":81.0472,"ARG_OF_PERICENTER":135.8123,"MEAN_ANOMALY":273.3578,"EPHEMERIS_TYPE":0,"CLASSIFICATION_TYPE":"U","NORAD_CAT_ID":41882,"ELEMENT_SET_NO":999,"REV_AT_EPOCH":3416,"BSTAR":0,"MEAN_MOTION_DOT":-3.65e-6,"MEAN_MOTION_DDOT":0},{"OBJECT_NAME":"CYGFM05","OBJECT_ID":"2016-078A","EPOCH":"2026-04-01T06:25:10.214976","MEAN_MOTION":15.53318642,"ECCENTRICITY":0.0006252,"INCLINATION":34.9584,"RA_OF_ASC_NODE":48.6567,"ARG_OF_PERICENTER":158.3035,"MEAN_ANOMALY":201.7954,"EPHEMERIS_TYPE":0,"CLASSIFICATION_TYPE":"U","NORAD_CAT_ID":41884,"ELEMENT_SET_NO":999,"REV_AT_EPOCH":51677,"BSTAR":0.00037792,"MEAN_MOTION_DOT":0.0002466,"MEAN_MOTION_DDOT":0},{"OBJECT_NAME":"CYGFM04","OBJECT_ID":"2016-078B","EPOCH":"2026-04-01T04:46:29.691264","MEAN_MOTION":15.57287736,"ECCENTRICITY":0.0006363,"INCLINATION":34.9346,"RA_OF_ASC_NODE":20.3134,"ARG_OF_PERICENTER":203.3157,"MEAN_ANOMALY":156.728,"EPHEMERIS_TYPE":0,"CLASSIFICATION_TYPE":"U","NORAD_CAT_ID":41885,"ELEMENT_SET_NO":999,"REV_AT_EPOCH":51697,"BSTAR":0.00041619,"MEAN_MOTION_DOT":0.00031491,"MEAN_MOTION_DDOT":0},{"OBJECT_NAME":"CYGFM02","OBJECT_ID":"2016-078C","EPOCH":"2026-04-01T03:09:32.097600","MEAN_MOTION":15.59459631,"ECCENTRICITY":0.0007322,"INCLINATION":34.9429,"RA_OF_ASC_NODE":17.1717,"ARG_OF_PERICENTER":200.3498,"MEAN_ANOMALY":159.6936,"EPHEMERIS_TYPE":0,"CLASSIFICATION_TYPE":"U","NORAD_CAT_ID":41886,"ELEMENT_SET_NO":999,"REV_AT_EPOCH":51711,"BSTAR":0.00049718,"MEAN_MOTION_DOT":0.00040918,"MEAN_MOTION_DDOT":0},{"OBJECT_NAME":"CYGFM01","OBJECT_ID":"2016-078D","EPOCH":"2026-04-01T06:53:25.224864","MEAN_MOTION":15.53888063,"ECCENTRICITY":0.0005781,"INCLINATION":34.9414,"RA_OF_ASC_NODE":50.1656,"ARG_OF_PERICENTER":151.3541,"MEAN_ANOMALY":208.7501,"EPHEMERIS_TYPE":0,"CLASSIFICATION_TYPE":"U","NORAD_CAT_ID":41887,"ELEMENT_SET_NO":999,"REV_AT_EPOCH":51672,"BSTAR":0.00037928,"MEAN_MOTION_DOT":0.0002527,"MEAN_MOTION_DDOT":0},{"OBJECT_NAME":"CYGFM08","OBJECT_ID":"2016-078E","EPOCH":"2026-04-01T04:10:13.869696","MEAN_MOTION":15.56072533,"ECCENTRICITY":0.0007824,"INCLINATION":34.945,"RA_OF_ASC_NODE":32.3247,"ARG_OF_PERICENTER":179.6478,"MEAN_ANOMALY":180.4253,"EPHEMERIS_TYPE":0,"CLASSIFICATION_TYPE":"U","NORAD_CAT_ID":41888,"ELEMENT_SET_NO":999,"REV_AT_EPOCH":51695,"BSTAR":0.00040474,"MEAN_MOTION_DOT":0.00029267,"MEAN_MOTION_DDOT":0},{"OBJECT_NAME":"CYGFM07","OBJECT_ID":"2016-078G","EPOCH":"2026-04-01T03:17:38.391360","MEAN_MOTION":15.56152515,"ECCENTRICITY":0.00068,"INCLINATION":34.9468,"RA_OF_ASC_NODE":20.9671,"ARG_OF_PERICENTER":200.5552,"MEAN_ANOMALY":159.4899,"EPHEMERIS_TYPE":0,"CLASSIFICATION_TYPE":"U","NORAD_CAT_ID":41890,"ELEMENT_SET_NO":999,"REV_AT_EPOCH":51697,"BSTAR":0.00048822,"MEAN_MOTION_DOT":0.00035435,"MEAN_MOTION_DDOT":0},{"OBJECT_NAME":"CYGFM03","OBJECT_ID":"2016-078H","EPOCH":"2026-04-01T11:50:11.999616","MEAN_MOTION":15.56175385,"ECCENTRICITY":0.0005733,"INCLINATION":34.9424,"RA_OF_ASC_NODE":20.5783,"ARG_OF_PERICENTER":193.0483,"MEAN_ANOMALY":167.0093,"EPHEMERIS_TYPE":0,"CLASSIFICATION_TYPE":"U","NORAD_CAT_ID":41891,"ELEMENT_SET_NO":999,"REV_AT_EPOCH":51700,"BSTAR":0.00043067,"MEAN_MOTION_DOT":0.00031253,"MEAN_MOTION_DDOT":0},{"OBJECT_NAME":"FENGYUN 3D","OBJECT_ID":"2017-072A","EPOCH":"2026-04-01T11:17:15.864864","MEAN_MOTION":14.1972328,"ECCENTRICITY":5.06e-5,"INCLINATION":99.006,"RA_OF_ASC_NODE":64.5332,"ARG_OF_PERICENTER":290.5032,"MEAN_ANOMALY":69.6089,"EPHEMERIS_TYPE":0,"CLASSIFICATION_TYPE":"U","NORAD_CAT_ID":43010,"ELEMENT_SET_NO":999,"REV_AT_EPOCH":43410,"BSTAR":0.00024976,"MEAN_MOTION_DOT":4.82e-6,"MEAN_MOTION_DDOT":0},{"OBJECT_NAME":"NOAA 20 (JPSS-1)","OBJECT_ID":"2017-073A","EPOCH":"2026-04-01T10:53:53.559168","MEAN_MOTION":14.19541965,"ECCENTRICITY":0.0001983,"INCLINATION":98.7719,"RA_OF_ASC_NODE":31.6186,"ARG_OF_PERICENTER":107.1249,"MEAN_ANOMALY":253.0144,"EPHEMERIS_TYPE":0,"CLASSIFICATION_TYPE":"U","NORAD_CAT_ID":43013,"ELEMENT_SET_NO":999,"REV_AT_EPOCH":43358,"BSTAR":6.1933e-5,"MEAN_MOTION_DOT":8.6e-7,"MEAN_MOTION_DDOT":0},{"OBJECT_NAME":"GOES 17","OBJECT_ID":"2018-022A","EPOCH":"2026-04-01T10:46:21.021888","MEAN_MOTION":1.00272001,"ECCENTRICITY":0.0001316,"INCLINATION":0.7413,"RA_OF_ASC_NODE":86.8648,"ARG_OF_PERICENTER":247.1617,"MEAN_ANOMALY":287.8673,"EPHEMERIS_TYPE":0,"CLASSIFICATION_TYPE":"U","NORAD_CAT_ID":43226,"ELEMENT_SET_NO":999,"REV_AT_EPOCH":2965,"BSTAR":0,"MEAN_MOTION_DOT":-1.91e-6,"MEAN_MOTION_DDOT":0},{"OBJECT_NAME":"FENGYUN 2H","OBJECT_ID":"2018-050A","EPOCH":"2026-04-01T11:34:23.914272","MEAN_MOTION":1.00270454,"ECCENTRICITY":0.0001468,"INCLINATION":2.8337,"RA_OF_ASC_NODE":79.9869,"ARG_OF_PERICENTER":174.518,"MEAN_ANOMALY":187.9819,"EPHEMERIS_TYPE":0,"CLASSIFICATION_TYPE":"U","NORAD_CAT_ID":43491,"ELEMENT_SET_NO":999,"REV_AT_EPOCH":2867,"BSTAR":0,"MEAN_MOTION_DOT":-1.33e-6,"MEAN_MOTION_DDOT":0}]
